{"fetched_at":"2026-07-12T17:32:49.193Z","source":"https://celestrak.org/NORAD/elements/gp.php?NAME=ICEYE&FORMAT=JSON","constellation":"iceye","records":[{"OBJECT_NAME":"ICEYE-X72","OBJECT_ID":"2026-067CS","EPOCH":"2026-07-12T12:00:02.000160","CLASSIFICATION_TYPE":"U","MEAN_MOTION":14.95434043,"ECCENTRICITY":0.0000425,"INCLINATION":97.7627,"RA_OF_ASC_NODE":151.4959,"ARG_OF_PERICENTER":178.2167,"MEAN_ANOMALY":215.0536,"EPHEMERIS_TYPE":0,"NORAD_CAT_ID":68504,"ELEMENT_SET_NO":999,"REV_AT_EPOCH":510,"BSTAR":-0.001815,"MEAN_MOTION_DOT":-0.00020054,"MEAN_MOTION_DDOT":0},{"OBJECT_NAME":"ICEYE-X78","OBJECT_ID":"2026-100R","EPOCH":"2026-07-11T16:36:34.175808","CLASSIFICATION_TYPE":"U","MEAN_MOTION":14.91808636,"ECCENTRICITY":0.00037381,"INCLINATION":97.7339,"RA_OF_ASC_NODE":89.6904,"ARG_OF_PERICENTER":62.0286,"MEAN_ANOMALY":298.1311,"EPHEMERIS_TYPE":0,"NORAD_CAT_ID":68995,"ELEMENT_SET_NO":999,"REV_AT_EPOCH":1035,"BSTAR":0.000034808811,"MEAN_MOTION_DOT":0.00000296,"MEAN_MOTION_DDOT":0},{"OBJECT_NAME":"ICEYE-X82","OBJECT_ID":"2026-100S","EPOCH":"2026-07-11T17:06:51.701760","CLASSIFICATION_TYPE":"U","MEAN_MOTION":14.9141396,"ECCENTRICITY":0.00057916,"INCLINATION":97.7336,"RA_OF_ASC_NODE":89.6582,"ARG_OF_PERICENTER":72.7187,"MEAN_ANOMALY":287.4665,"EPHEMERIS_TYPE":0,"NORAD_CAT_ID":68996,"ELEMENT_SET_NO":999,"REV_AT_EPOCH":1035,"BSTAR":0.00015156827,"MEAN_MOTION_DOT":0.00001459,"MEAN_MOTION_DDOT":0}]}
