ICEYE-X72               
1 68504U 26067CS  26193.50002315 -.00020054  00000+0 -18150-2 0  9990
2 68504  97.7627 151.4959 0000425 178.2167 215.0536 14.95434043  5105
ICEYE-X78               
1 68995U 26100R   26192.69206222  .00000296  00000+0  34809-4 0  9999
2 68995  97.7339  89.6904 0003738  62.0286 298.1311 14.91808636 10358
ICEYE-X82               
1 68996U 26100S   26192.71309840  .00001459  00000+0  15157-3 0  9999
2 68996  97.7336  89.6582 0005791  72.7187 287.4665 14.91413960 10352
